STARLINK-4691           
1 53588U 22104A   22267.58335648 -.00037697  00000+0 -65898-3 0  9991
2 53588  53.2151 153.1796 0000921 108.0315 244.6982 15.49904654  1306
STARLINK-4673           
1 53589U 22104B   22267.58335648  .00064556  00000+0  11372-2 0  9991
2 53589  53.2152 153.1678 0000564 114.6188 244.1635 15.49854886  1302
STARLINK-4689           
1 53590U 22104C   22267.58335648  .00064227  00000+0  11313-2 0  9993
2 53590  53.2148 153.1757 0000935 122.9796 231.0367 15.49859989  1302
STARLINK-4674           
1 53591U 22104D   22267.58335648 -.00043834  00000+0 -76747-3 0  9990
2 53591  53.2149 153.1733 0001271 105.6385 249.6382 15.49929047  1309
STARLINK-4672           
1 53592U 22104E   22267.58335648  .00064601  00000+0  11372-2 0  9996
2 53592  53.2153 153.1731 0001143 108.9168 247.4029 15.49874491  1302
STARLINK-4671           
1 53593U 22104F   22267.58335648  .00064578  00000+0  11375-2 0  9993
2 53593  53.2146 153.1674 0001291 106.9516 250.8595 15.49857048  1305
STARLINK-4681           
1 53594U 22104G   22267.58335648  .00003522  00000+0  70043-4 0  9995
2 53594  53.2151 153.1625 0000982  93.6961 267.9807 15.49856034  1309
STARLINK-4684           
1 53595U 22104H   22267.58335648  .00064525  00000+0  11372-2 0  9994
2 53595  53.2148 153.1626 0001471 108.3905 252.0227 15.49841561  1314
STARLINK-4668           
1 53596U 22104J   22267.58335648  .00065113  00000+0  11468-2 0  9995
2 53596  53.2145 153.1545 0001714 114.2219 249.6718 15.49856197  1303
STARLINK-4682           
1 53597U 22104K   22267.58335648  .00066012  00000+0  11605-2 0  9998
2 53597  53.2147 153.1570 0001335 111.5975 251.1237 15.49902608  1305
STARLINK-4676           
1 53598U 22104L   22267.58335648 -.00018704  00000+0 -32222-3 0  9995
2 53598  53.2156 153.1536 0001098 100.6068 266.1797 15.49898682  1309
STARLINK-4665           
1 53599U 22104M   22267.58335648  .00166795  00000+0  71263-3 0  9996
2 53599  53.2159 150.5417 0000509  25.1094 184.0182 15.84195952  1303
STARLINK-4677           
1 53600U 22104N   22267.58335648 -.00015583  00000+0 -26696-3 0  9999
2 53600  53.2147 153.1444 0001231 106.9491 262.3640 15.49905243  1306
STARLINK-4675           
1 53601U 22104P   22267.58335648 -.00015552  00000+0 -26638-3 0  9992
2 53601  53.2147 153.1519 0000923 118.1613 247.3185 15.49908945  1307
STARLINK-4648           
1 53602U 22104Q   22267.58335648 -.01068075  00000+0 -99591-2 0  9999
2 53602  53.2169 152.1474 0001264 102.3708  40.0997 15.69385550  1302
STARLINK-4692           
1 53603U 22104R   22267.58335648 -.01056562  00000+0 -98583-2 0  9998
2 53603  53.2169 152.1488 0001148  99.4579  42.2108 15.69341325  1301
STARLINK-4690           
1 53604U 22104S   22267.58335648 -.01039121  00000+0 -96421-2 0  9990
2 53604  53.2171 152.1449 0001225 115.0392  29.0343 15.69428687  1307
STARLINK-4693           
1 53605U 22104T   22267.58335648 -.00040128  00000+0 -70186-3 0  9990
2 53605  53.2145 153.1463 0001371 108.3303 259.7202 15.49917374  1305
STARLINK-4590           
1 53606U 22104U   22267.58335648  .00004614  00000+0  37238-4 0  9991
2 53606  53.2148 152.1185 0001178 120.7956  38.3120 15.73220683  1303
STARLINK-4591           
1 53607U 22104V   22267.58335648 -.01092515  00000+0 -10194-1 0  9991
2 53607  53.2169 152.1460 0001045  99.0363  44.1994 15.69433640  1304
STARLINK-4647           
1 53608U 22104W   22267.58335648  .00008235  00000+0  63015-4 0  9998
2 53608  53.2150 152.1183 0001188 126.0087  31.3339 15.73206175  1306
STARLINK-4660           
1 53609U 22104X   22267.58335648 -.01050531  00000+0 -97427-2 0  9990
2 53609  53.2169 152.1425 0001201 120.7082  24.1535 15.69470854  1308
STARLINK-4610           
1 53610U 22104Y   22267.58335648  .00083099  00000+0  59150-3 0  9996
2 53610  53.2151 152.1168 0001418 121.8558  36.6635 15.73166507  1306
STARLINK-4650           
1 53611U 22104Z   22267.58335648 -.00005535  00000+0 -35024-4 0  9993
2 53611  53.2149 152.1184 0001203 123.4211  33.3236 15.73214462  1303
STARLINK-4658           
1 53612U 22104AA  22267.58335648  .00068326  00000+0  48723-3 0  9998
2 53612  53.2150 152.1132 0001649 142.6487  17.6415 15.73202522  1309
STARLINK-4655           
1 53613U 22104AB  22267.58335648  .00036296  00000+0  26166-3 0  9997
2 53613  53.2149 152.1171 0000941 121.7064  36.1988 15.73222436  1301
STARLINK-4605           
1 53616U 22104AE  22267.58335648  .00092940  00000+0  65973-3 0  9997
2 53616  53.2166 151.4056 0001060  99.6722  44.5204 15.73185428  1307
STARLINK-4601           
1 53617U 22104AF  22267.58335648  .00089635  00000+0  63670-3 0  9997
2 53617  53.2154 152.1137 0001414 121.0086  39.8777 15.73184464  1300
STARLINK-4604           
1 53618U 22104AG  22267.58335648 -.00007984  00000+0 -52477-4 0  9991
2 53618  53.2155 152.1101 0001111 120.9674  42.2911 15.73220546  1308
STARLINK-4609           
1 53619U 22104AH  22267.58335648  .00080869  00000+0  57556-3 0  9995
2 53619  53.2149 152.1100 0001254 118.0970  43.3862 15.73180533  1304
STARLINK-4615           
1 53620U 22104AJ  22267.58335648 -.00011350  00000+0 -76490-4 0  9997
2 53620  53.2149 152.1046 0001073 123.2736  41.1873 15.73222740  1307
STARLINK-4608           
1 53621U 22104AK  22267.58335648  .00100800  00000+0  71512-3 0  9994
2 53621  53.2151 152.1094 0001460 138.4835  24.2259 15.73164349  1302
STARLINK-4568           
1 53622U 22104AL  22267.58335648  .00091348  00000+0  64827-3 0  9992
2 53622  53.2145 152.1005 0001251 112.9098  52.7254 15.73198161  1304
STARLINK-4573           
1 53623U 22104AM  22267.58335648  .00090657  00000+0  64336-3 0  9990
2 53623  53.2150 152.1061 0001636 128.0008  35.8664 15.73201301  1307
STARLINK-4596           
1 53624U 22104AN  22267.58335648 -.00011516  00000+0 -77686-4 0  9993
2 53624  53.2153 152.1030 0001190 126.8995  39.3824 15.73218718  1300
STARLINK-4603           
1 53625U 22104AP  22267.58335648  .00080646  00000+0  57371-3 0  9990
2 53625  53.2151 152.1045 0001485 125.2705  39.7888 15.73192278  1300
STARLINK-4554           
1 53626U 22104AQ  22267.58335648 -.00023430  00000+0 -16268-3 0  9991
2 53626  53.2152 152.1000 0001269 120.9622  47.1223 15.73243533  1300
STARLINK-4595           
1 53627U 22104AR  22267.58335648 -.00005420  00000+0 -34187-4 0  9992
2 53627  53.2151 152.1010 0001178 134.5969  32.2694 15.73225504  1300
STARLINK-4600           
1 53628U 22104AS  22267.58335648  .00048463  00000+0  34766-3 0  9997
2 53628  53.2152 152.0978 0001394 123.1810  46.0633 15.73204386  1304
STARLINK-4602           
1 53629U 22104AT  22267.58335648  .00031155  00000+0  22537-3 0  9991
2 53629  53.2151 152.1002 0001301 117.7919  49.6375 15.73220841  1306
STARLINK-4598           
1 53630U 22104AU  22267.58335648  .00088913  00000+0  63147-3 0  9999
2 53630  53.2151 152.0956 0001325 126.2984  43.5451 15.73191492  1305
STARLINK-4599           
1 53631U 22104AV  22267.58335648  .00069832  00000+0  49775-3 0  9990
2 53631  53.2149 152.0970 0001272 130.9997  37.6319 15.73204511  1300
STARLINK-4606           
1 53632U 22104AW  22267.58335648 -.00007952  00000+0 -52266-4 0  9998
2 53632  53.2150 152.0936 0001111 127.8787  43.1622 15.73214793  1301
STARLINK-4593           
1 53633U 22104AX  22267.58335648 -.00010211  00000+0 -68303-4 0  9990
2 53633  53.2150 152.0941 0001230 136.1123  34.2899 15.73240629  1301
STARLINK-4592           
1 53634U 22104AY  22267.58335648 -.00028069  00000+0 -19570-3 0  9992
2 53634  53.2148 152.0895 0001234 118.9146  53.2947 15.73264549  1306
STARLINK-4587           
1 53635U 22104AZ  22267.58335648 -.00022052  00000+0 -15280-3 0  9993
2 53635  53.2144 152.0884 0001364 124.8817  46.7819 15.73247312  1300
STARLINK-4586           
1 53636U 22104BA  22267.58335648 -.00001656  00000+0 -73816-5 0  9992
2 53636  53.2149 152.0885 0001088 119.3003  54.0899 15.73216313  1303
STARLINK-4396           
1 53637U 22104BB  22267.58335648  .00072136  00000+0  51397-3 0  9990
2 53637  53.2152 152.0906 0001423 119.3260  53.4882 15.73200478  1300
STARLINK-4594           
1 53638U 22104BC  22267.58335648  .00076164  00000+0  54248-3 0  9994
2 53638  53.2148 152.0858 0001192 129.6556  44.9364 15.73187047  1303
STARLINK-4422           
1 53639U 22104BD  22267.58335648  .00055979  00000+0  40038-3 0  9998
2 53639  53.2152 152.0879 0001461 122.1696  51.8305 15.73213423  1304
STARLINK-4597           
1 53640U 22104BE  22267.58335648  .00105650  00000+0  74890-3 0  9995
2 53640  53.2146 152.0833 0001309 136.3806  38.8462 15.73163863  1301
STARLINK-4588           
1 53641U 22104BF  22267.58335648  .00051339  00000+0  36805-3 0  9994
2 53641  53.2150 152.0842 0001512 125.5548  50.2263 15.73195287  1308
STARLINK-4622           
1 53648U 22105A   22267.58335648 -.00018350  00000+0 -30668-3 0  9991
2 53648  97.6538 146.6336 0002131 129.1613 342.1932 15.51794851  1309
STARLINK-4386           
1 53649U 22105B   22267.58335648 -.01234240  00000+0 -23734-1 0  9995
2 53649  97.6558 146.6263 0002251 143.8393 230.4113 15.50605060  1304
STARLINK-4380           
1 53650U 22105C   22267.58335648 -.01070949  00000+0 -20641-1 0  9995
2 53650  97.6555 146.6251 0002460 149.0666 225.9932 15.50595835  1309
STARLINK-4388           
1 53651U 22105D   22267.58335648 -.01276376  00000+0 -24443-1 0  9992
2 53651  97.6553 146.6237 0004105 252.0394 123.6170 15.50795175  1300
STARLINK-4374           
1 53652U 22105E   22267.58335648 -.00480192  00000+0 -86220-2 0  9997
2 53652  97.6552 146.6218 0002140 138.7673 238.4903 15.51548203  1304
STARLINK-4390           
1 53653U 22105F   22267.58335648 -.00466595  00000+0 -83404-2 0  9990
2 53653  97.6546 146.6201 0002193 135.9580 241.9159 15.51625743  1301
STARLINK-4420           
1 53654U 22105G   22267.58335648 -.00677499  00000+0 -12262-1 0  9991
2 53654  97.6546 146.6181 0002224 134.3821 245.0490 15.52014072  1306
